TEVEL2-7                
1 63238U 25052AE  26143.42964269  .00012261  00000+0  41462-3 0  9995
2 63238  97.3968  38.7418 0004848 212.7446 147.3495 15.30760941 66233
TEVEL2-8                
1 63239U 25052AF  26143.43762618  .00012363  00000+0  41829-3 0  9991
2 63239  97.3968  38.7275 0004812 213.4496 146.6442 15.30743030 66233
INNOSAT 16 (RS92S7)     
1 64878U 25155C   26142.74501425  .00004494  00000+0  18209-3 0  9997
2 64878  97.4553 109.9627 0008486 277.2404  82.7869 15.25143702 76793
GEOSCAN 6 (RS92S6)      
1 64879U 25155D   26142.73851338  .00008193  00000+0  28811-3 0  9998
2 64879  97.4546 111.2051 0005527 266.5351  93.5257 15.29604992 76875
GEOSCAN 1 (RS92S1)      
1 64880U 25155E   26142.75050699  .00008460  00000+0  29243-3 0  9990
2 64880  97.4543 111.3438 0005449 266.4116  93.6501 15.30155958 76884
239ALFEROV (RS61S)      
1 64881U 25155F   26142.75505850  .00011124  00000+0  36046-3 0  9995
2 64881  97.4545 111.8277 0004831 263.8000  96.2691 15.32168884 76917
GEOSCAN 2 (RS92S2)      
1 64890U 25155Q   26142.74871973  .00008488  00000+0  29093-3 0  9999
2 64890  97.4542 111.4844 0004918 246.8629 113.2094 15.30431788 76892
GEOSCAN 5 (RS92S5)      
1 64891U 25155R   26143.46760229  .00011293  00000+0  36212-3 0  9990
2 64891  97.4535 112.6730 0003752 269.7875  90.2936 15.32504776 77030
GEOSCAN 4 (RS92S4)      
1 64892U 25155S   26143.51943834  .00011389  00000+0  36362-3 0  9994
2 64892  97.4539 112.7668 0003707 270.1215  89.9602 15.32642383 77043
GEOSCAN 3 (RS92S3)      
1 64893U 25155T   26143.48550850  .00013589  00000+0  40936-3 0  9999
2 64893  97.4528 113.0942 0003370 269.3429  90.7427 15.34451206 77065
INNOSAT 3 (RS92S0)      
1 64894U 25155U   26143.47306803  .00027613  00000+0  65069-3 0  9993
2 64894  97.4483 114.4148 0001641 256.5221 103.5843 15.41892209 77151
KNACKSAT-2              
1 67683U 98067XZ  26143.47615743  .00034577  00000+0  46334-3 0  9991
2 67683  51.6304  58.5531 0012027 109.7965 250.4324 15.57562157 16424
